STARLINK-36075          
1 66905U 25283AD  26001.33335648 -.01973982  00000+0 -57494-1 0  9990
2 66905  53.1599 337.4518 0000964  95.1925 335.2984 15.38460190  5579
1998-067XS              
1 66906U 98067XS  26001.31521928  .00035503  00000+0  58984-3 0  9999
2 66906  51.6324  45.2592 0002518 305.8505  54.2250 15.51733652  4650
1998-067XT              
1 66907U 98067XT  26001.29242785  .00089542  00000+0  13401-2 0  9994
2 66907  51.6314  45.1078 0003899 348.6240  11.4662 15.54217046  4651
1998-067XU              
1 66908U 98067XU  26001.29130938  .00088726  00000+0  13300-2 0  9992
2 66908  51.6307  45.0994 0003949 344.5705  15.5165 15.54176560  4655
SILVERSAT               
1 66909U 98067XV  26001.28798220  .00103409  00000+0  15186-2 0  9996
2 66909  51.6304  45.0772 0004034 351.8437   8.2488 15.54666780  4651
1998-067XW              
1 66910U 98067XW  26001.28695958  .00092338  00000+0  13688-2 0  9995
2 66910  51.6310  45.0708 0003353 323.5635  36.5127 15.54466618  4650
1998-067XX              
1 66911U 98067XX  25365.38052956  .00112028  00000+0  16211-2 0  9998
2 66911  51.6318  49.5181 0003204 330.0387  30.0420 15.55033456  4505
1998-067XY              
1 66912U 98067XY  26001.30071189  .00068740  00000+0  10681-2 0  9994
2 66912  51.6323  45.1632 0003779 336.2240  23.8576 15.53300941  4649
2025-284A               
1 66913U 25284A   25365.05037874  .00009355  00000+0  77971-3 0  9996
2 66913  80.4033 106.9667 0016555 221.3672 138.6292 14.98433865  3886
2025-284B               
1 66914U 25284B   25350.28554881  .00008068  00000+0  38445-3 0  9991
2 66914  80.4045 125.2713 0008179 234.9626 125.0834 15.18985981  1668
HULIANWANG DIGUI-105    
1 66915U 25285A   26001.15110111 -.00000060  00000+0  62008-4 0  9995
2 66915  50.0069  38.3530 0000560 335.6426  24.4450 13.98343103  3637
HULIANWANG DIGUI-106    
1 66916U 25285B   25365.57437720  .00000128  00000+0  19139-3 0  9992
2 66916  50.0044  40.6246 0000267 213.9381 146.1505 13.98827707  3554
