CCSDS_OMM_VERS = 2.0
CREATION_DATE  = 
ORIGINATOR     = 

OBJECT_NAME    = STARLINK-36075
OBJECT_ID      = 2025-283AD
CENTER_NAME    = EARTH
REF_FRAME      = TEME
TIME_SYSTEM    = UTC
MEAN_ELEMENT_THEORY = SGP/SGP4

EPOCH          = 2026-01-01T08:00:01.999872
MEAN_MOTION    = 15.38460190
ECCENTRICITY   = .00009647
INCLINATION    = 53.1599
RA_OF_ASC_NODE = 337.4518
ARG_OF_PERICENTER = 95.1925
MEAN_ANOMALY   = 335.2984

EPHEMERIS_TYPE = 0
CLASSIFICATION_TYPE = U
NORAD_CAT_ID   = 66905
ELEMENT_SET_NO = 999
REV_AT_EPOCH   = 557
BSTAR          = -.57494455E-1
MEAN_MOTION_DOT = -.1973982E-1
MEAN_MOTION_DDOT = 0

CCSDS_OMM_VERS = 2.0
CREATION_DATE  = 
ORIGINATOR     = 

OBJECT_NAME    = 1998-067XS
OBJECT_ID      = 1998-067XS
CENTER_NAME    = EARTH
REF_FRAME      = TEME
TIME_SYSTEM    = UTC
MEAN_ELEMENT_THEORY = SGP/SGP4

EPOCH          = 2026-01-01T07:33:54.945792
MEAN_MOTION    = 15.51733652
ECCENTRICITY   = .00025185
INCLINATION    = 51.6324
RA_OF_ASC_NODE = 45.2592
ARG_OF_PERICENTER = 305.8505
MEAN_ANOMALY   = 54.2250

EPHEMERIS_TYPE = 0
CLASSIFICATION_TYPE = U
NORAD_CAT_ID   = 66906
ELEMENT_SET_NO = 999
REV_AT_EPOCH   = 465
BSTAR          = .58983917E-3
MEAN_MOTION_DOT = .35503E-3
MEAN_MOTION_DDOT = 0

CCSDS_OMM_VERS = 2.0
CREATION_DATE  = 
ORIGINATOR     = 

OBJECT_NAME    = 1998-067XT
OBJECT_ID      = 1998-067XT
CENTER_NAME    = EARTH
REF_FRAME      = TEME
TIME_SYSTEM    = UTC
MEAN_ELEMENT_THEORY = SGP/SGP4

EPOCH          = 2026-01-01T07:01:05.766240
MEAN_MOTION    = 15.54217046
ECCENTRICITY   = .00038994
INCLINATION    = 51.6314
RA_OF_ASC_NODE = 45.1078
ARG_OF_PERICENTER = 348.6240
MEAN_ANOMALY   = 11.4662

EPHEMERIS_TYPE = 0
CLASSIFICATION_TYPE = U
NORAD_CAT_ID   = 66907
ELEMENT_SET_NO = 999
REV_AT_EPOCH   = 465
BSTAR          = .13400631E-2
MEAN_MOTION_DOT = .89542E-3
MEAN_MOTION_DDOT = 0

CCSDS_OMM_VERS = 2.0
CREATION_DATE  = 
ORIGINATOR     = 

OBJECT_NAME    = 1998-067XU
OBJECT_ID      = 1998-067XU
CENTER_NAME    = EARTH
REF_FRAME      = TEME
TIME_SYSTEM    = UTC
MEAN_ELEMENT_THEORY = SGP/SGP4

EPOCH          = 2026-01-01T06:59:29.130432
MEAN_MOTION    = 15.54176560
ECCENTRICITY   = .00039492
INCLINATION    = 51.6307
RA_OF_ASC_NODE = 45.0994
ARG_OF_PERICENTER = 344.5705
MEAN_ANOMALY   = 15.5165

EPHEMERIS_TYPE = 0
CLASSIFICATION_TYPE = U
NORAD_CAT_ID   = 66908
ELEMENT_SET_NO = 999
REV_AT_EPOCH   = 465
BSTAR          = .13299968E-2
MEAN_MOTION_DOT = .88726E-3
MEAN_MOTION_DDOT = 0

CCSDS_OMM_VERS = 2.0
CREATION_DATE  = 
ORIGINATOR     = 

OBJECT_NAME    = SILVERSAT
OBJECT_ID      = 1998-067XV
CENTER_NAME    = EARTH
REF_FRAME      = TEME
TIME_SYSTEM    = UTC
MEAN_ELEMENT_THEORY = SGP/SGP4

EPOCH          = 2026-01-01T06:54:41.662080
MEAN_MOTION    = 15.54666780
ECCENTRICITY   = .00040348
INCLINATION    = 51.6304
RA_OF_ASC_NODE = 45.0772
ARG_OF_PERICENTER = 351.8437
MEAN_ANOMALY   = 8.2488

EPHEMERIS_TYPE = 0
CLASSIFICATION_TYPE = U
NORAD_CAT_ID   = 66909
ELEMENT_SET_NO = 999
REV_AT_EPOCH   = 465
BSTAR          = .15186096E-2
MEAN_MOTION_DOT = .103409E-2
MEAN_MOTION_DDOT = 0

CCSDS_OMM_VERS = 2.0
CREATION_DATE  = 
ORIGINATOR     = 

OBJECT_NAME    = 1998-067XW
OBJECT_ID      = 1998-067XW
CENTER_NAME    = EARTH
REF_FRAME      = TEME
TIME_SYSTEM    = UTC
MEAN_ELEMENT_THEORY = SGP/SGP4

EPOCH          = 2026-01-01T06:53:13.307712
MEAN_MOTION    = 15.54466618
ECCENTRICITY   = .0003353
INCLINATION    = 51.6310
RA_OF_ASC_NODE = 45.0708
ARG_OF_PERICENTER = 323.5635
MEAN_ANOMALY   = 36.5127

EPHEMERIS_TYPE = 0
CLASSIFICATION_TYPE = U
NORAD_CAT_ID   = 66910
ELEMENT_SET_NO = 999
REV_AT_EPOCH   = 465
BSTAR          = .13687656E-2
MEAN_MOTION_DOT = .92338E-3
MEAN_MOTION_DDOT = 0

CCSDS_OMM_VERS = 2.0
CREATION_DATE  = 
ORIGINATOR     = 

OBJECT_NAME    = 1998-067XX
OBJECT_ID      = 1998-067XX
CENTER_NAME    = EARTH
REF_FRAME      = TEME
TIME_SYSTEM    = UTC
MEAN_ELEMENT_THEORY = SGP/SGP4

EPOCH          = 2025-12-31T09:07:57.753984
MEAN_MOTION    = 15.55033456
ECCENTRICITY   = .00032046
INCLINATION    = 51.6318
RA_OF_ASC_NODE = 49.5181
ARG_OF_PERICENTER = 330.0387
MEAN_ANOMALY   = 30.0420

EPHEMERIS_TYPE = 0
CLASSIFICATION_TYPE = U
NORAD_CAT_ID   = 66911
ELEMENT_SET_NO = 999
REV_AT_EPOCH   = 450
BSTAR          = .16210746E-2
MEAN_MOTION_DOT = .112028E-2
MEAN_MOTION_DDOT = 0

CCSDS_OMM_VERS = 2.0
CREATION_DATE  = 
ORIGINATOR     = 

OBJECT_NAME    = 1998-067XY
OBJECT_ID      = 1998-067XY
CENTER_NAME    = EARTH
REF_FRAME      = TEME
TIME_SYSTEM    = UTC
MEAN_ELEMENT_THEORY = SGP/SGP4

EPOCH          = 2026-01-01T07:13:01.507296
MEAN_MOTION    = 15.53300941
ECCENTRICITY   = .00037796
INCLINATION    = 51.6323
RA_OF_ASC_NODE = 45.1632
ARG_OF_PERICENTER = 336.2240
MEAN_ANOMALY   = 23.8576

EPHEMERIS_TYPE = 0
CLASSIFICATION_TYPE = U
NORAD_CAT_ID   = 66912
ELEMENT_SET_NO = 999
REV_AT_EPOCH   = 464
BSTAR          = .10680576E-2
MEAN_MOTION_DOT = .6874E-3
MEAN_MOTION_DDOT = 0

CCSDS_OMM_VERS = 2.0
CREATION_DATE  = 
ORIGINATOR     = 

OBJECT_NAME    = 2025-284A
OBJECT_ID      = 2025-284A
CENTER_NAME    = EARTH
REF_FRAME      = TEME
TIME_SYSTEM    = UTC
MEAN_ELEMENT_THEORY = SGP/SGP4

EPOCH          = 2025-12-31T01:12:32.723136
MEAN_MOTION    = 14.98433865
ECCENTRICITY   = .0016555
INCLINATION    = 80.4033
RA_OF_ASC_NODE = 106.9667
ARG_OF_PERICENTER = 221.3672
MEAN_ANOMALY   = 138.6292

EPHEMERIS_TYPE = 0
CLASSIFICATION_TYPE = U
NORAD_CAT_ID   = 66913
ELEMENT_SET_NO = 999
REV_AT_EPOCH   = 388
BSTAR          = .77971E-3
MEAN_MOTION_DOT = .9355E-4
MEAN_MOTION_DDOT = 0

CCSDS_OMM_VERS = 2.0
CREATION_DATE  = 
ORIGINATOR     = 

OBJECT_NAME    = 2025-284B
OBJECT_ID      = 2025-284B
CENTER_NAME    = EARTH
REF_FRAME      = TEME
TIME_SYSTEM    = UTC
MEAN_ELEMENT_THEORY = SGP/SGP4

EPOCH          = 2025-12-16T06:51:11.417184
MEAN_MOTION    = 15.18985981
ECCENTRICITY   = .00081793
INCLINATION    = 80.4045
RA_OF_ASC_NODE = 125.2713
ARG_OF_PERICENTER = 234.9626
MEAN_ANOMALY   = 125.0834

EPHEMERIS_TYPE = 0
CLASSIFICATION_TYPE = U
NORAD_CAT_ID   = 66914
ELEMENT_SET_NO = 999
REV_AT_EPOCH   = 166
BSTAR          = .38444995E-3
MEAN_MOTION_DOT = .8068E-4
MEAN_MOTION_DDOT = 0

CCSDS_OMM_VERS = 2.0
CREATION_DATE  = 
ORIGINATOR     = 

OBJECT_NAME    = HULIANWANG DIGUI-105
OBJECT_ID      = 2025-285A
CENTER_NAME    = EARTH
REF_FRAME      = TEME
TIME_SYSTEM    = UTC
MEAN_ELEMENT_THEORY = SGP/SGP4

EPOCH          = 2026-01-01T03:37:35.135904
MEAN_MOTION    = 13.98343103
ECCENTRICITY   = .000056
INCLINATION    = 50.0069
RA_OF_ASC_NODE = 38.3530
ARG_OF_PERICENTER = 335.6426
MEAN_ANOMALY   = 24.4450

EPHEMERIS_TYPE = 0
CLASSIFICATION_TYPE = U
NORAD_CAT_ID   = 66915
ELEMENT_SET_NO = 999
REV_AT_EPOCH   = 363
BSTAR          = .62007959E-4
MEAN_MOTION_DOT = -.6E-6
MEAN_MOTION_DDOT = 0

CCSDS_OMM_VERS = 2.0
CREATION_DATE  = 
ORIGINATOR     = 

OBJECT_NAME    = HULIANWANG DIGUI-106
OBJECT_ID      = 2025-285B
CENTER_NAME    = EARTH
REF_FRAME      = TEME
TIME_SYSTEM    = UTC
MEAN_ELEMENT_THEORY = SGP/SGP4

EPOCH          = 2025-12-31T13:47:06.190080
MEAN_MOTION    = 13.98827707
ECCENTRICITY   = .00002672
INCLINATION    = 50.0044
RA_OF_ASC_NODE = 40.6246
ARG_OF_PERICENTER = 213.9381
MEAN_ANOMALY   = 146.1505

EPHEMERIS_TYPE = 0
CLASSIFICATION_TYPE = U
NORAD_CAT_ID   = 66916
ELEMENT_SET_NO = 999
REV_AT_EPOCH   = 355
BSTAR          = .19138798E-3
MEAN_MOTION_DOT = .128E-5
MEAN_MOTION_DDOT = 0

